[{"OBJECT_NAME":"STARLINK-3582","OBJECT_ID":"2022-022X","EPOCH":"2026-03-09T22:56:15.036576","MEAN_MOTION":15.17112073,"ECCENTRICITY":0.00019498,"INCLINATION":53.2143,"RA_OF_ASC_NODE":3.953,"ARG_OF_PERICENTER":143.0365,"MEAN_ANOMALY":217.0766,"EPHEMERIS_TYPE":0,"CLASSIFICATION_TYPE":"U","NORAD_CAT_ID":51873,"ELEMENT_SET_NO":999,"REV_AT_EPOCH":22321,"BSTAR":0.0018716326,"MEAN_MOTION_DOT":0.00037432,"MEAN_MOTION_DDOT":0},{"OBJECT_NAME":"FENGYUN 1C DEB","OBJECT_ID":"1999-025BLC","EPOCH":"2026-03-08T16:01:16.538592","MEAN_MOTION":14.99951534,"ECCENTRICITY":0.01625238,"INCLINATION":98.6028,"RA_OF_ASC_NODE":151.5668,"ARG_OF_PERICENTER":148.1189,"MEAN_ANOMALY":212.9995,"EPHEMERIS_TYPE":0,"CLASSIFICATION_TYPE":"U","NORAD_CAT_ID":31222,"ELEMENT_SET_NO":999,"REV_AT_EPOCH":1270,"BSTAR":0.0010673359,"MEAN_MOTION_DOT":0.00017492,"MEAN_MOTION_DDOT":0}]
